<!-- ?xml version="1.0" encoding="UTF-8"? -->
<kml xmlns:xsi="http://www.w3.org/2001/XMLSchema-instance">
<Placemark>
  <name>
C472_N55_A_HS_spot_056_R_2021-08-24T16:54:00.252105Z
</name>
  <LookAt>
    <longitude>
13.0683
</longitude>
    <latitude>
53.3295
</latitude>
    <range>
250000.0
</range>
    <tilt>0</tilt>
    <heading>0</heading>
  </LookAt>
  <Style id="khStyle813">
    <LineStyle id="khLineStyle817">
      <color>ffff55ff</color>
    </LineStyle>
    <PolyStyle id="khPolyStyle818">
      <color>7fff55ff</color>
      <outline>0</outline>
    </PolyStyle>
  </Style>
  <Polygon id="khPolygon820">
    <extrude>1</extrude>
    <tessellate>1</tessellate>
    <altitudeMode>relativeToGround</altitudeMode>
    <outerBoundaryIs>
      <LinearRing id="khLinearRing821">
        <coordinates>
1.313004041905603E+01,5.331157744522848E+01,8000.0 
1.311664703203880E+01,5.335879211087277E+01,8000.0 
1.300648352620044E+01,5.334749008365513E+01,8000.0 
1.301968336923475E+01,5.330024631813897E+01,8000.0 
1.313004041905603E+01,5.331157744522848E+01,8000.0 
        </coordinates>
      </LinearRing>
    </outerBoundaryIs>
  </Polygon>
</Placemark>
</kml>
